STARLINK-37956          
1 69711U 26147H   26201.83335647 -.02524983  00000+0 -23343-1 0  9994
2 69711  97.2841 238.5459 0002056  74.7958  94.1323 15.70769683  4644
STARLINK-38043          
1 69712U 26147J   26201.86025466  .00227057  00000+0  11466-2 0  9995
2 69712  97.2845 238.5897 0001262 350.2188   9.9055 15.80985655  4758
STARLINK-38020          
1 69713U 26147K   26201.83335647 -.02505329  00000+0 -22632-1 0  9999
2 69713  97.2841 238.5497 0002014  76.8946 104.1320 15.71291306  4644
STARLINK-38059          
1 69714U 26147L   26201.83335647 -.02494307  00000+0 -22865-1 0  9991
2 69714  97.2845 238.5486 0002038  82.6555  92.3582 15.70929220  4644
STARLINK-38061          
1 69715U 26147M   26200.52867195  .00166763  00000+0  85280-3 0  9995
2 69715  97.2822 237.1863 0000273  37.1076 323.0211 15.80867548  4543
STARLINK-38060          
1 69716U 26147N   26201.85724293  .00225743  00000+0  11476-2 0  9993
2 69716  97.2840 238.5941 0003519 135.3695 224.7857 15.80838171  4756
STARLINK-38040          
1 69717U 26147P   26201.83335647 -.02653672  00000+0 -20697-1 0  9997
2 69717  97.2843 238.5668 0001953  76.9131 140.4270 15.74908850  4737
STARLINK-37989          
1 69718U 26147Q   26201.83335647 -.01110080  00000+0 -10061-1 0  9992
2 69718  97.2847 238.5611 0001664  65.8165 136.6267 15.70711836  4738
STARLINK-38039          
1 69719U 26147R   26201.83335647 -.00121799  00000+0 -64230-3 0  9990
2 69719  97.2841 238.5762 0001264  91.2748 145.8126 15.80874847  4735
STARLINK-38003          
1 69720U 26147S   26201.85423841  .00065070  00000+0  33720-3 0  9995
2 69720  97.2840 238.5977 0000955  83.2374 276.9003 15.80863491  4751
STARLINK-38014          
1 69721U 26147T   26201.34707833  .00136106  00000+0  69835-3 0  9991
2 69721  97.2843 238.0633 0001251 102.9167 257.2241 15.80876259  4671
STARLINK-37915          
1 69722U 26147U   26201.85274113  .00348626  00000+0  17363-2 0  9998
2 69722  97.2836 238.5995 0001117 302.7588  57.3573 15.80976219  4751
STARLINK-38007          
1 69723U 26147V   26201.83335647 -.00070437  00000+0 -36948-3 0  9992
2 69723  97.2843 238.5735 0001158  89.8515 146.4596 15.80844850  4738
STARLINK-38008          
1 69724U 26147W   26201.85123062  .00230106  00000+0  11666-2 0  9999
2 69724  97.2867 238.6020 0000342 250.5996 109.5235 15.80891873  4756
STARLINK-38021          
1 69725U 26147X   26201.85053891  .00346622  00000+0  17280-2 0  9991
2 69725  97.2826 238.6028 0004152 354.3638   5.7583 15.80955913  4758
STARLINK-38015          
1 69726U 26147Y   26201.83335647 -.00183775  00000+0 -12540-2 0  9996
2 69726  97.2853 238.5597 0001333  91.5566 107.9698 15.75261977  4731
STARLINK-38010          
1 69727U 26147Z   26201.82922575  .00233717  00000+0  15155-2 0  9993
2 69727  97.2834 238.4779 0000846  40.9340 319.1989 15.75339286  4748
SXM-11                  
1 69728U 26148A   26201.73705367  .00000010  00000+0  00000+0 0  9991
2 69728   0.0971 264.8802 0002074 187.6543 350.7757  1.00270825   377
HAIYANG-2E              
1 69737U 26149A   26201.88958764 -.00000038  00000+0  55193-5 0  9999
2 69737  99.3440 208.7367 0001579  83.8195 276.3136 13.79299298  2607
CZ-4B R/B               
1 69738U 26149B   26201.85862168  .00000042  00000+0  31530-4 0  9991
2 69738  99.3219 210.2821 0197901 313.7431  44.7510 14.30068872  2948
STARLINK-38033          
1 69739U 26150A   26201.71838234  .00213105  00000+0  10798-2 0  9993
2 69739  97.2848  40.3998 0003160  49.5378 310.6166 15.80944298  4190
STARLINK-38076          
1 69740U 26150B   26201.82033102  .00232542  00000+0  15146-2 0  9996
2 69740  97.2842  40.4120 0001364  72.6056 287.5358 15.75239800  4205
STARLINK-38074          
1 69741U 26150C   26201.83335647 -.00179960  00000+0 -12273-2 0  9991
2 69741  97.2852  40.5041 0001087  96.8830 157.0534 15.75264088  4203
STARLINK-38041          
1 69742U 26150D   26201.83335647 -.00154007  00000+0 -10478-2 0  9992
2 69742  97.2861  40.4818 0001440  96.8710 103.0756 15.75246419  4200
STARLINK-38087          
1 69743U 26150E   26201.83335647 -.00165551  00000+0 -11274-2 0  9994
2 69743  97.2857  40.4985 0001041  94.2438 147.6914 15.75257255  4207
STARLINK-38078          
1 69744U 26150F   26201.84014238  .00374946  00000+0  18541-2 0  9998
2 69744  97.2850  40.5397 0002444  63.4145 296.7373 15.81065657  4216
STARLINK-38047          
1 69745U 26150G   26201.83335647 -.00136526  00000+0 -92733-3 0  9996
2 69745  97.2863  40.4852 0000583  90.2947 119.6550 15.75236849  4201
STARLINK-38046          
1 69746U 26150H   26201.83335647 -.00199452  00000+0 -13628-2 0  9999
2 69746  97.2850  40.5259 0001271 103.8752 200.0559 15.75273965  4204
STARLINK-38067          
1 69747U 26150J   26201.49104514  .00116652  00000+0  77113-3 0  9998
2 69747  97.2849  40.0952 0000960  73.0757 287.0614 15.75225969  4157
STARLINK-37988          
1 69748U 26150K   26201.48928127  .00199478  00000+0  13041-2 0  9998
2 69748  97.2846  40.0974 0000383  22.7417 337.3865 15.75246075  4150
