OBJECT_NAME,OBJECT_ID,EPOCH,MEAN_MOTION,ECCENTRICITY,INCLINATION,RA_OF_ASC_NODE,ARG_OF_PERICENTER,MEAN_ANOMALY,EPHEMERIS_TYPE,CLASSIFICATION_TYPE,NORAD_CAT_ID,ELEMENT_SET_NO,REV_AT_EPOCH,BSTAR,MEAN_MOTION_DOT,MEAN_MOTION_DDOT
STARLINK-37956,2026-147H,2026-07-20T20:00:01.999008,15.70769683,.0002056,97.2841,238.5459,74.7958,94.1323,0,U,69711,999,464,-.23343E-1,-.2524983E-1,0
STARLINK-38043,2026-147J,2026-07-20T20:38:46.002624,15.80985655,.0001262,97.2845,238.5897,350.2188,9.9055,0,U,69712,999,475,.11466E-2,.227057E-2,0
STARLINK-38020,2026-147K,2026-07-20T20:00:01.999008,15.71291306,.0002014,97.2841,238.5497,76.8946,104.1320,0,U,69713,999,464,-.22632E-1,-.2505329E-1,0
STARLINK-38059,2026-147L,2026-07-20T20:00:01.999008,15.70929220,.0002038,97.2845,238.5486,82.6555,92.3582,0,U,69714,999,464,-.22865E-1,-.2494307E-1,0
STARLINK-38061,2026-147M,2026-07-19T12:41:17.256480,15.80867548,.0000273,97.2822,237.1863,37.1076,323.0211,0,U,69715,999,454,.85280438E-3,.166763E-2,0
STARLINK-38060,2026-147N,2026-07-20T20:34:25.789152,15.80838171,.0003519,97.2840,238.5941,135.3695,224.7857,0,U,69716,999,475,.11476E-2,.225743E-2,0
STARLINK-38040,2026-147P,2026-07-20T20:00:01.999008,15.74908850,.0001953,97.2843,238.5668,76.9131,140.4270,0,U,69717,999,473,-.20697E-1,-.2653672E-1,0
STARLINK-37989,2026-147Q,2026-07-20T20:00:01.999008,15.70711836,.0001664,97.2847,238.5611,65.8165,136.6267,0,U,69718,999,473,-.10061E-1,-.111008E-1,0
STARLINK-38039,2026-147R,2026-07-20T20:00:01.999008,15.80874847,.0001264,97.2841,238.5762,91.2748,145.8126,0,U,69719,999,473,-.6423E-3,-.121799E-2,0
STARLINK-38003,2026-147S,2026-07-20T20:30:06.198624,15.80863491,.0000955,97.2840,238.5977,83.2374,276.9003,0,U,69720,999,475,.3372E-3,.6507E-3,0
STARLINK-38014,2026-147T,2026-07-20T08:19:47.567712,15.80876259,.00012518,97.2843,238.0633,102.9167,257.2241,0,U,69721,999,467,.69835412E-3,.136106E-2,0
STARLINK-37915,2026-147U,2026-07-20T20:27:56.833632,15.80976219,.0001117,97.2836,238.5995,302.7588,57.3573,0,U,69722,999,475,.17363E-2,.348626E-2,0
STARLINK-38007,2026-147V,2026-07-20T20:00:01.999008,15.80844850,.0001158,97.2843,238.5735,89.8515,146.4596,0,U,69723,999,473,-.36948E-3,-.70437E-3,0
STARLINK-38008,2026-147W,2026-07-20T20:25:46.325568,15.80891873,.0000342,97.2867,238.6020,250.5996,109.5235,0,U,69724,999,475,.11666E-2,.230106E-2,0
STARLINK-38021,2026-147X,2026-07-20T20:24:46.561824,15.80955913,.0004152,97.2826,238.6028,354.3638,5.7583,0,U,69725,999,475,.1728E-2,.346622E-2,0
STARLINK-38015,2026-147Y,2026-07-20T20:00:01.999008,15.75261977,.0001333,97.2853,238.5597,91.5566,107.9698,0,U,69726,999,473,-.1254E-2,-.183775E-2,0
STARLINK-38010,2026-147Z,2026-07-20T19:54:05.104800,15.75339286,.0000846,97.2834,238.4779,40.9340,319.1989,0,U,69727,999,474,.15155E-2,.233717E-2,0
SXM-11,2026-148A,2026-07-20T17:41:21.437088,1.00270825,.0002074,0.0971,264.8802,187.6543,350.7757,0,U,69728,999,37,0,.1E-6,0
HAIYANG-2E,2026-149A,2026-07-20T21:21:00.372096,13.79299298,.0001579,99.3440,208.7367,83.8195,276.3136,0,U,69737,999,260,.55193E-5,-.38E-6,0
CZ-4B R/B,2026-149B,2026-07-20T20:36:24.913152,14.30068872,.0197901,99.3219,210.2821,313.7431,44.7510,0,U,69738,999,294,.3153E-4,.42E-6,0
STARLINK-38033,2026-150A,2026-07-20T17:14:28.234176,15.80944298,.000316,97.2848,40.3998,49.5378,310.6166,0,U,69739,999,419,.10798E-2,.213105E-2,0
STARLINK-38076,2026-150B,2026-07-20T19:41:16.600128,15.75239800,.0001364,97.2842,40.4120,72.6056,287.5358,0,U,69740,999,420,.15146E-2,.232542E-2,0
STARLINK-38074,2026-150C,2026-07-20T20:00:01.999008,15.75264088,.0001087,97.2852,40.5041,96.8830,157.0534,0,U,69741,999,420,-.12273E-2,-.17996E-2,0
STARLINK-38041,2026-150D,2026-07-20T20:00:01.999008,15.75246419,.000144,97.2861,40.4818,96.8710,103.0756,0,U,69742,999,420,-.10478E-2,-.154007E-2,0
STARLINK-38087,2026-150E,2026-07-20T20:00:01.999008,15.75257255,.0001041,97.2857,40.4985,94.2438,147.6914,0,U,69743,999,420,-.11274E-2,-.165551E-2,0
STARLINK-38078,2026-150F,2026-07-20T20:09:48.301632,15.81065657,.0002444,97.2850,40.5397,63.4145,296.7373,0,U,69744,999,421,.18541E-2,.374946E-2,0
STARLINK-38047,2026-150G,2026-07-20T20:00:01.999008,15.75236849,.0000583,97.2863,40.4852,90.2947,119.6550,0,U,69745,999,420,-.92733E-3,-.136526E-2,0
STARLINK-38046,2026-150H,2026-07-20T20:00:01.999008,15.75273965,.0001271,97.2850,40.5259,103.8752,200.0559,0,U,69746,999,420,-.13628E-2,-.199452E-2,0
STARLINK-38067,2026-150J,2026-07-20T11:47:06.300096,15.75225969,.00009609,97.2849,40.0952,73.0757,287.0614,0,U,69747,999,415,.77112967E-3,.116652E-2,0
STARLINK-37988,2026-150K,2026-07-20T11:44:33.901728,15.75246075,.0000383,97.2846,40.0974,22.7417,337.3865,0,U,69748,999,415,.13040691E-2,.199478E-2,0
